#cP2022  1  8  0  0  0.00000000      96 ORBIT IGb14 HLM  IGS
## 2191 518400.00000000   900.00000000 59587 0.0000000000000
+   32   G01G02G03G04G05G06G07G08G09G10G11G12G13G14G15G16G17
+        G18G19G20G21G22G23G24G25G26G27G28G29G30G31G32  0  0
+          0  0  0  0  0  0  0  0  0  0  0  0  0  0  0  0  0
+          0  0  0  0  0  0  0  0  0  0  0  0  0  0  0  0  0
+          0  0  0  0  0  0  0  0  0  0  0  0  0  0  0  0  0
++         1  2  3  2  2  2  1  2  1  3  2  2  2  2  2  2  2
++         2  2  2  2  2  3  2  1  2  2  2  2  1  1  1  0  0
++         0  0  0  0  0  0  0  0  0  0  0  0  0  0  0  0  0
++         0  0  0  0  0  0  0  0  0  0  0  0  0  0  0  0  0
++         0  0  0  0  0  0  0  0  0  0  0  0  0  0  0  0  0
%c G  cc GPS ccc cccc cccc cccc cccc ccccc ccccc ccccc ccccc
%c cc cc ccc ccc cccc cccc cccc cccc ccccc ccccc ccccc ccccc
%f  1.2500000  1.025000000  0.00000000000  0.000000000000000
%f  0.0000000  0.000000000  0.00000000000  0.000000000000000
%i    0    0    0    0      0      0      0      0         0
%i    0    0    0    0      0      0      0      0         0
/* FINAL ORBIT COMBINATION FROM WEIGHTED AVERAGE OF:        
/* cod emr esa gfz grg jpl mit ngs sio                      
/* REFERENCED TO IGS TIME (IGST) AND TO WEIGHTED MEAN POLE: 
/* PCV:IGS14_2188 OL/AL:FES2004  NONE     Y  ORB:CMB CLK:CMB
*  2022  1  8  8 15  0.00000000
PG01   1281.741264  14926.700213 -22180.450348    462.814521  5  5  2  77       
PG02  19027.169298 -15606.658536  10793.688354   -648.072340  3  2  4  81       
PG03   9798.418914  21113.002090 -12992.625850    -70.125593 10 10  7 106       
PG04    628.247776  24638.380863   9796.477466   -195.907500  3  6  3  72       
PG05   4930.778786 -15180.891298  21042.371408    -67.174562  6  3  6  81       
PG06  25775.849158  -5155.598572  -3980.133177    164.837605  6  4  2  87       
PG07  17804.594510   8353.580016  18447.986382    299.631576  4  5  3  78       
PG08  -6108.645178  25626.113119   1224.616813    -51.285858  4  7  5  77       
PG09   9453.230266  17082.754153  17918.945283   -358.549747  5  4  4  88       
PG10 -21991.291389  -9192.766366 -11889.279519 999999.999999
PG11  21581.017616 -12218.697243   9488.071041    -23.283837  4  5  6  88       
PG12  -6208.668082 -21406.156424 -14807.307143   -152.685559  7  4  6  73       
PG13  13184.527235 -21847.723092   6914.623854    241.986835  3  4  3  68       
PG14  21686.374627   9999.096480 -11695.741033    -67.584985  5  7  6  54       
PG15   2734.889979 -26233.618360    199.592605    -93.146920  5  2  5  75       
PG16  -9517.489448  11549.550753  21653.400359   -452.552543  4  6  6  77       
PG17  14411.487594   2593.345289 -21724.066167    558.504668  4  6  6  38       
PG18 -17922.447965  -7704.867077  18067.081275    264.870728  7  8  6  82       
PG19  16404.450848  -6065.496971 -20194.746830    102.768295  5  6  5  69       
PG20  14080.328450  -8700.719767  20717.100035    517.262842  5  3  4  89       
PG21  -8588.005039  16822.025597 -17736.411855    155.640179  5  4  2  97       
PG22   2647.838277  18820.991209 -18464.906899   -422.494440  6  7  3  82       
PG23 -20662.535809 -16705.146918  -1484.890089     13.351633  8  9  5  70       
PG24   2563.073814 -17160.702721 -20298.505029    277.040801  5  7  2  66       
PG25 -16589.747566 -20301.398079  -5389.789840    267.759666  3  5  4  88       
PG26 -19189.661382   1486.413782  18353.039741    172.443425  5  4  6  71       
PG27 -12256.777582  20509.283360  10984.036556     55.745223  5  6  4  80       
PG28  19250.773941   3716.557317 -17284.240999    426.533953  5  5  6  95       
PG29  -5256.348855 -20193.125175  16359.766628   -464.592564  5  7  3  69       
PG30  24138.538227   1676.918502  11290.716827   -505.244508  3  5  2  78       
PG31 -26050.669034   6182.145363  -1677.251040   -158.936306     4  2  81       
PG32 -15706.672430   2182.602187 -21160.170506    -47.193956  4  5  5  71       
*  2022  1  8  8 30  0.00000000
PG01  -1051.963313  15660.185537 -21644.375160    462.805647  5  5  3  83       
PG02  20023.597540 -15823.143287   8216.505503   -648.073182  3  2  3  87       
PG03   8489.197561  20194.179670 -15195.469441    -70.138732  9  9  7  77       
PG04    178.483858  25533.332015   7162.927180   -195.906065  3  6  3  73       
PG05   6895.480958 -13679.211074  21524.302083    -67.175351  6  3  6  80       
PG06  25244.256364  -4789.023119  -6793.451969    164.847409  7  4  2  82       
PG07  15845.143444   9131.569229  19799.798865    299.635167  4  5  3  74       
PG08  -6320.324369  25276.827459   4087.896342    -51.286518  3  7  5  57       
PG09   8949.907097  18991.574657  16175.673036   -358.548793  4  4  4  87       
PG10 -22804.077305 -10126.420250  -9388.490612   -288.270081  7  8  7  69       
PG11  22544.821713 -12248.084563   6839.343777    -23.315948  5  5  5  85       
PG12  -4862.334106 -20264.801608 -16804.542574   -152.690552  7  4  6  84       
PG13  13096.980817 -20858.285339   9580.000458    241.992241  3  4  3  69       
PG14  22396.815299  10988.108029  -9209.485595    -67.590066  6  8  6  71       
PG15   3088.699753 -25981.137016   3003.108154    -93.144082  5  2  5  54       
PG16 -11296.345333   9740.764246  21728.053415   -452.557463  3  6  6  70       
PG17  13770.174733   5087.158267 -21696.262018    558.510229  4  6  6  54       
PG18 -15915.651210  -8474.440632  19532.797166    264.864296  8  9  7  72       
PG19  15802.233045  -3827.483837 -21225.799671    102.773124  6  7  5  32       
PG20  15997.075915  -7367.907936  19800.229974    517.262611  4  2  4  90       
PG21 -10569.422689  17460.585661 -15975.380042    155.641224  5  4  2  85       
PG22    747.583079  17669.432771 -19704.191265   -422.486259  6  5  4  81       
PG23 -20520.370156 -16885.992462   1378.350786     13.348122  8  9  5  69       
PG24   4658.401951 -17916.428544 -19190.987108    277.041140  5  7  1  53       
PG25 -15887.118660 -19995.287003  -8085.737193    267.764633  3  5  5  90       
PG26 -20679.535793    114.796876  16758.285398    172.446562  4  5  6  78       
PG27 -12195.799571  19062.391028  13391.640215     55.766179  4  5  4  70       
PG28  20485.320450   5257.573932 -15400.194826    426.527198  6  6  7  87       
PG29  -4660.340079 -21852.702333  14275.826484   -464.596832  5  7  3  74       
PG30  22874.744438   2348.780442  13563.176510   -505.246889  2  5  2  78       
PG31 -25803.738360   5858.839557  -4465.523817   -158.937855     4  2  90       
PG32 -15305.758219   -258.756721 -21575.386413    -47.199245  3  5  5  73       
*  2022  1  8  8 45  0.00000000
PG01  -3269.277030  16495.639951 -20743.167306    462.796776  5  5  4  93       
PG02  20747.711487 -15955.700931   5501.879512   -648.073982  4  3  3  90       
PG03   6946.500926  19205.619526 -17139.740030    -70.151822  9  8  7  81       
PG04   -174.328980  26148.862769   4405.529612   -195.904613  3  6  3  43       
PG05   8961.007037 -12261.807487  21629.921935    -67.176760  6  3  5  73       
PG06  24445.083573  -4273.228928  -9490.064735    164.857111  7  4     83       
PG07  13804.859053  10061.157201  20825.554016    299.638668  3  5  3  72       
PG08  -6514.212314  24618.070922   6879.319770    -51.287934  3  6  5  68       
PG09   8568.343955  20710.934461  14152.245931   -358.547818  5  4  4  68       
PG10 -23434.378356 -10836.245283  -6727.887004   -288.278521  7  7  7           
PG11  23216.292400 -12226.407264   4072.806455    -23.348085  6  5  5  87       
PG12  -3300.943786 -19060.747942 -18519.364632   -152.695205  7  3  6  89       
PG13  12985.664246 -19580.635020  12077.986728    241.997418  4  3  2  74       
PG14  22934.397590  11753.712730  -6565.304455    -67.595080  7  8  6  84       
PG15   3454.094088 -25428.465207   5753.570870    -93.141815  4  2  4  81       
PG16 -13155.237591   8041.194570  21420.076828   -452.562413  3  6  6  70       
PG17  13269.041129   7586.606098 -21279.398546    558.514870  4  5  6  75       
PG18 -13815.551444  -9404.759360  20663.258996    264.857809  8  9  7  67       
PG19  15303.230518  -1468.900767 -21898.826496    102.777206  6  7  5  64       
PG20  17870.281731  -6188.092274  18540.327683    517.262947  4     4  86       
PG21 -12316.693227  18095.657621 -13918.573484    155.641990  5  4  2  92       
PG22  -1311.900856  16546.851790 -20601.205520   -422.478508  5  4  4  91       
PG23 -20126.703348 -16885.350775   4218.000709     13.344696  8  8  4  83       
PG24   6592.649837 -18708.985321 -17757.098593    277.041496  5  7     57       
PG25 -14936.445575 -19547.995057 -10646.044892    267.769598  3  3  6  84       
PG26 -22072.319266  -1068.851103  14876.986588    172.449684  4  5  6  55       
PG27 -12178.133348  17353.877554  15561.764084     55.787177  4  4  4  72       
PG28  21626.279789   6570.331757 -13238.858775    426.520332  7  6  7  98       
PG29  -4207.653429 -23296.770027  11944.958189   -464.601559  5  6  4  71       
PG30  21419.332000   3169.603489  15605.772922   -505.249367  2  5  2  73       
PG31 -25287.203132   5412.656818  -7179.270459   -158.939673     4  2  81       
PG32 -15027.456922  -2741.370742 -21614.901650    -47.204626  1  5  5  77       
EOF
